STARLINK-34314          
1 64146U 25112A   26082.42577171  .00007495  00000+0  52306-3 0  9997
2 64146  97.6036 135.0300 0000653  99.6724 260.4576 15.05654402 45378
STARLINK-33926          
1 64147U 25112B   26082.40085137  .00004432  00000+0  31126-3 0  9997
2 64147  97.6031 135.0657 0001533 157.4044 202.7251 15.05635445 45370
STARLINK-34213          
1 64148U 25112C   26082.03532174  .00004564  00000+0  32037-3 0  9993
2 64148  97.6013 134.6289 0000664 115.0113 245.1183 15.05645077 45319
STARLINK-33924          
1 64149U 25112D   26082.44238057  .00002962  00000+0  20941-3 0  9993
2 64149  97.6021 135.0112 0000687  98.5327 261.5978 15.05643146 45371
STARLINK-34209          
1 64150U 25112E   26082.39256568 -.00011916  00000+0 -82394-3 0  9997
2 64150  97.6006 135.0745 0001508 101.0373 259.1023 15.05605874 45372
STARLINK-34338          
1 64151U 25112F   26082.38423885  .00001152  00000+0  84026-4 0  9999
2 64151  97.6021 135.0881 0001108  90.5394 269.5960 15.05645883 45371
STARLINK-34348          
1 64152U 25112G   26082.41747351  .00002089  00000+0  14905-3 0  9999
2 64152  97.6038 135.0443 0001080  98.1540 261.9809 15.05631472 45377
STARLINK-34345          
1 64153U 25112H   26082.14332079  .00006259  00000+0  43774-3 0  9996
2 64153  97.6028 134.7936 0001490 123.5674 236.5695 15.05641196 45337
STARLINK-33945          
1 64154U 25112J   26082.40143584  .00005310  00000+0  37209-3 0  9990
2 64154  97.6019 143.5487 0000881  91.5806 268.5522 15.05637595 45928
STARLINK-34346          
1 64155U 25112K   26082.39531498  .00004511  00000+0  31653-3 0  9993
2 64155  97.6023 135.0811 0001025 106.0652 254.0687 15.05661173 45373
STARLINK-34277          
1 64156U 25112L   26082.42853710  .00004048  00000+0  28454-3 0  9992
2 64156  97.6032 135.0365 0001224  99.0658 261.0708 15.05657903 45374
STARLINK-34343          
1 64157U 25112M   26082.41192484  .00002342  00000+0  16650-3 0  9996
2 64157  97.6036 135.0603 0001134  92.5870 267.5486 15.05647277 45375
STARLINK-34166          
1 64158U 25112N   26082.37869116  .00001823  00000+0  13057-3 0  9996
2 64158  97.6018 134.9486 0001478 141.4479 218.6853 15.05643026 45365
STARLINK-34344          
1 64159U 25112P   26082.10455088  .00002881  00000+0  20377-3 0  9995
2 64159  97.6025 134.6976 0001212  88.1866 271.9499 15.05650806 45326
STARLINK-34339          
1 64160U 25112Q   26082.42023010  .00003410  00000+0  24041-3 0  9999
2 64160  97.6037 135.0480 0001322  81.9462 278.1914 15.05647156 45371
STARLINK-34341          
1 64161U 25112R   26082.40362156  .00004302  00000+0  30223-3 0  9995
2 64161  97.6027 135.0720 0001575 140.0278 220.1065 15.05640503 45373
