[{"OBJECT_NAME":"STARLINK-34314","OBJECT_ID":"2025-112A","EPOCH":"2026-03-23T10:13:06.675744","MEAN_MOTION":15.05654402,"ECCENTRICITY":6.53e-5,"INCLINATION":97.6036,"RA_OF_ASC_NODE":135.03,"ARG_OF_PERICENTER":99.6724,"MEAN_ANOMALY":260.4576,"EPHEMERIS_TYPE":0,"CLASSIFICATION_TYPE":"U","NORAD_CAT_ID":64146,"ELEMENT_SET_NO":999,"REV_AT_EPOCH":4537,"BSTAR":0.00052306,"MEAN_MOTION_DOT":7.495e-5,"MEAN_MOTION_DDOT":0},{"OBJECT_NAME":"STARLINK-33926","OBJECT_ID":"2025-112B","EPOCH":"2026-03-23T09:37:13.558368","MEAN_MOTION":15.05635445,"ECCENTRICITY":0.0001533,"INCLINATION":97.6031,"RA_OF_ASC_NODE":135.0657,"ARG_OF_PERICENTER":157.4044,"MEAN_ANOMALY":202.7251,"EPHEMERIS_TYPE":0,"CLASSIFICATION_TYPE":"U","NORAD_CAT_ID":64147,"ELEMENT_SET_NO":999,"REV_AT_EPOCH":4537,"BSTAR":0.00031126,"MEAN_MOTION_DOT":4.432e-5,"MEAN_MOTION_DDOT":0},{"OBJECT_NAME":"STARLINK-34213","OBJECT_ID":"2025-112C","EPOCH":"2026-03-23T00:50:51.798336","MEAN_MOTION":15.05645077,"ECCENTRICITY":6.646e-5,"INCLINATION":97.6013,"RA_OF_ASC_NODE":134.6289,"ARG_OF_PERICENTER":115.0113,"MEAN_ANOMALY":245.1183,"EPHEMERIS_TYPE":0,"CLASSIFICATION_TYPE":"U","NORAD_CAT_ID":64148,"ELEMENT_SET_NO":999,"REV_AT_EPOCH":4531,"BSTAR":0.00032037032,"MEAN_MOTION_DOT":4.564e-5,"MEAN_MOTION_DDOT":0},{"OBJECT_NAME":"STARLINK-33924","OBJECT_ID":"2025-112D","EPOCH":"2026-03-23T10:37:01.681248","MEAN_MOTION":15.05643146,"ECCENTRICITY":6.87e-5,"INCLINATION":97.6021,"RA_OF_ASC_NODE":135.0112,"ARG_OF_PERICENTER":98.5327,"MEAN_ANOMALY":261.5978,"EPHEMERIS_TYPE":0,"CLASSIFICATION_TYPE":"U","NORAD_CAT_ID":64149,"ELEMENT_SET_NO":999,"REV_AT_EPOCH":4537,"BSTAR":0.00020941,"MEAN_MOTION_DOT":2.962e-5,"MEAN_MOTION_DDOT":0},{"OBJECT_NAME":"STARLINK-34209","OBJECT_ID":"2025-112E","EPOCH":"2026-03-23T09:25:17.674752","MEAN_MOTION":15.05605874,"ECCENTRICITY":0.0001508,"INCLINATION":97.6006,"RA_OF_ASC_NODE":135.0745,"ARG_OF_PERICENTER":101.0373,"MEAN_ANOMALY":259.1023,"EPHEMERIS_TYPE":0,"CLASSIFICATION_TYPE":"U","NORAD_CAT_ID":64150,"ELEMENT_SET_NO":999,"REV_AT_EPOCH":4537,"BSTAR":-0.00082394,"MEAN_MOTION_DOT":-0.00011916,"MEAN_MOTION_DDOT":0},{"OBJECT_NAME":"STARLINK-34338","OBJECT_ID":"2025-112F","EPOCH":"2026-03-23T09:13:18.236640","MEAN_MOTION":15.05645883,"ECCENTRICITY":0.0001108,"INCLINATION":97.6021,"RA_OF_ASC_NODE":135.0881,"ARG_OF_PERICENTER":90.5394,"MEAN_ANOMALY":269.596,"EPHEMERIS_TYPE":0,"CLASSIFICATION_TYPE":"U","NORAD_CAT_ID":64151,"ELEMENT_SET_NO":999,"REV_AT_EPOCH":4537,"BSTAR":8.4026e-5,"MEAN_MOTION_DOT":1.152e-5,"MEAN_MOTION_DDOT":0},{"OBJECT_NAME":"STARLINK-34348","OBJECT_ID":"2025-112G","EPOCH":"2026-03-23T10:01:09.711264","MEAN_MOTION":15.05631472,"ECCENTRICITY":0.000108,"INCLINATION":97.6038,"RA_OF_ASC_NODE":135.0443,"ARG_OF_PERICENTER":98.154,"MEAN_ANOMALY":261.9809,"EPHEMERIS_TYPE":0,"CLASSIFICATION_TYPE":"U","NORAD_CAT_ID":64152,"ELEMENT_SET_NO":999,"REV_AT_EPOCH":4537,"BSTAR":0.00014905,"MEAN_MOTION_DOT":2.089e-5,"MEAN_MOTION_DDOT":0},{"OBJECT_NAME":"STARLINK-34345","OBJECT_ID":"2025-112H","EPOCH":"2026-03-23T03:26:22.916256","MEAN_MOTION":15.05641196,"ECCENTRICITY":0.00014907,"INCLINATION":97.6028,"RA_OF_ASC_NODE":134.7936,"ARG_OF_PERICENTER":123.5674,"MEAN_ANOMALY":236.5695,"EPHEMERIS_TYPE":0,"CLASSIFICATION_TYPE":"U","NORAD_CAT_ID":64153,"ELEMENT_SET_NO":999,"REV_AT_EPOCH":4533,"BSTAR":0.00043773542,"MEAN_MOTION_DOT":6.259e-5,"MEAN_MOTION_DDOT":0},{"OBJECT_NAME":"STARLINK-33945","OBJECT_ID":"2025-112J","EPOCH":"2026-03-23T09:38:04.056576","MEAN_MOTION":15.05637595,"ECCENTRICITY":8.81e-5,"INCLINATION":97.6019,"RA_OF_ASC_NODE":143.5487,"ARG_OF_PERICENTER":91.5806,"MEAN_ANOMALY":268.5522,"EPHEMERIS_TYPE":0,"CLASSIFICATION_TYPE":"U","NORAD_CAT_ID":64154,"ELEMENT_SET_NO":999,"REV_AT_EPOCH":4592,"BSTAR":0.00037209,"MEAN_MOTION_DOT":5.31e-5,"MEAN_MOTION_DDOT":0},{"OBJECT_NAME":"STARLINK-34346","OBJECT_ID":"2025-112K","EPOCH":"2026-03-23T09:29:15.214272","MEAN_MOTION":15.05661173,"ECCENTRICITY":0.0001025,"INCLINATION":97.6023,"RA_OF_ASC_NODE":135.0811,"ARG_OF_PERICENTER":106.0652,"MEAN_ANOMALY":254.0687,"EPHEMERIS_TYPE":0,"CLASSIFICATION_TYPE":"U","NORAD_CAT_ID":64155,"ELEMENT_SET_NO":999,"REV_AT_EPOCH":4537,"BSTAR":0.00031653,"MEAN_MOTION_DOT":4.511e-5,"MEAN_MOTION_DDOT":0},{"OBJECT_NAME":"STARLINK-34277","OBJECT_ID":"2025-112L","EPOCH":"2026-03-23T10:17:05.605440","MEAN_MOTION":15.05657903,"ECCENTRICITY":0.0001224,"INCLINATION":97.6032,"RA_OF_ASC_NODE":135.0365,"ARG_OF_PERICENTER":99.0658,"MEAN_ANOMALY":261.0708,"EPHEMERIS_TYPE":0,"CLASSIFICATION_TYPE":"U","NORAD_CAT_ID":64156,"ELEMENT_SET_NO":999,"REV_AT_EPOCH":4537,"BSTAR":0.00028454,"MEAN_MOTION_DOT":4.048e-5,"MEAN_MOTION_DDOT":0},{"OBJECT_NAME":"STARLINK-34343","OBJECT_ID":"2025-112M","EPOCH":"2026-03-23T09:53:10.306176","MEAN_MOTION":15.05647277,"ECCENTRICITY":0.0001134,"INCLINATION":97.6036,"RA_OF_ASC_NODE":135.0603,"ARG_OF_PERICENTER":92.587,"MEAN_ANOMALY":267.5486,"EPHEMERIS_TYPE":0,"CLASSIFICATION_TYPE":"U","NORAD_CAT_ID":64157,"ELEMENT_SET_NO":999,"REV_AT_EPOCH":4537,"BSTAR":0.0001665,"MEAN_MOTION_DOT":2.342e-5,"MEAN_MOTION_DDOT":0},{"OBJECT_NAME":"STARLINK-34166","OBJECT_ID":"2025-112N","EPOCH":"2026-03-23T09:05:18.916224","MEAN_MOTION":15.05643026,"ECCENTRICITY":0.0001478,"INCLINATION":97.6018,"RA_OF_ASC_NODE":134.9486,"ARG_OF_PERICENTER":141.4479,"MEAN_ANOMALY":218.6853,"EPHEMERIS_TYPE":0,"CLASSIFICATION_TYPE":"U","NORAD_CAT_ID":64158,"ELEMENT_SET_NO":999,"REV_AT_EPOCH":4536,"BSTAR":0.00013057,"MEAN_MOTION_DOT":1.823e-5,"MEAN_MOTION_DDOT":0},{"OBJECT_NAME":"STARLINK-34344","OBJECT_ID":"2025-112P","EPOCH":"2026-03-23T02:30:33.196032","MEAN_MOTION":15.05650806,"ECCENTRICITY":0.00012129,"INCLINATION":97.6025,"RA_OF_ASC_NODE":134.6976,"ARG_OF_PERICENTER":88.1866,"MEAN_ANOMALY":271.9499,"EPHEMERIS_TYPE":0,"CLASSIFICATION_TYPE":"U","NORAD_CAT_ID":64159,"ELEMENT_SET_NO":999,"REV_AT_EPOCH":4532,"BSTAR":0.00020377319,"MEAN_MOTION_DOT":2.881e-5,"MEAN_MOTION_DDOT":0},{"OBJECT_NAME":"STARLINK-34339","OBJECT_ID":"2025-112Q","EPOCH":"2026-03-23T10:05:07.880640","MEAN_MOTION":15.05647156,"ECCENTRICITY":0.0001322,"INCLINATION":97.6037,"RA_OF_ASC_NODE":135.048,"ARG_OF_PERICENTER":81.9462,"MEAN_ANOMALY":278.1914,"EPHEMERIS_TYPE":0,"CLASSIFICATION_TYPE":"U","NORAD_CAT_ID":64160,"ELEMENT_SET_NO":999,"REV_AT_EPOCH":4537,"BSTAR":0.00024041,"MEAN_MOTION_DOT":3.41e-5,"MEAN_MOTION_DDOT":0},{"OBJECT_NAME":"STARLINK-34341","OBJECT_ID":"2025-112R","EPOCH":"2026-03-23T09:41:12.902784","MEAN_MOTION":15.05640503,"ECCENTRICITY":0.0001575,"INCLINATION":97.6027,"RA_OF_ASC_NODE":135.072,"ARG_OF_PERICENTER":140.0278,"MEAN_ANOMALY":220.1065,"EPHEMERIS_TYPE":0,"CLASSIFICATION_TYPE":"U","NORAD_CAT_ID":64161,"ELEMENT_SET_NO":999,"REV_AT_EPOCH":4537,"BSTAR":0.00030223,"MEAN_MOTION_DOT":4.302e-5,"MEAN_MOTION_DDOT":0}]
